start=new Date('2022-03-22T00:00:00.000Z').valueOf();
sats=[{"CLASSIFICATION_TYPE":"U","BSTAR":"0.00102640000000","DECAY_DATE":null,"OBJECT_TYPE":"PAYLOAD","OBJECT_NAME":"STARLINK-24","TLE_LINE2":"2 44238  53.0077 158.6300 0003769  38.6099 321.5166 15.23617304154802","NORAD_CAT_ID":"44238","ECCENTRICITY":"0.00037690","MEAN_MOTION_DOT":"0.00024651","TIME_SYSTEM":"UTC","FILE":"3368836","LAUNCH_DATE":"2019-05-24","OBJECT_ID":"2019-029D","EPHEMERIS_TYPE":"0","SITE":"AFETR","GP_ID":"199346069","PERIOD":"94.512","MEAN_ANOMALY":"321.5166","MEAN_MOTION_DDOT":"0.0000000000000","INCLINATION":"53.0077","MEAN_ELEMENT_THEORY":"SGP4","REF_FRAME":"TEME","REV_AT_EPOCH":"15480","ELEMENT_SET_NO":"999","MEAN_MOTION":"15.23617304","RA_OF_ASC_NODE":"158.6300","EPOCH":"2022-03-21T16:23:54.874464","SEMIMAJOR_AXIS":"6873.078","RCS_SIZE":"LARGE","COUNTRY_CODE":"US","TLE_LINE1":"1 44238U 19029D   22080.68327401  .00024651  00000-0  10264-2 0  9998","PERIAPSIS":"492.352","APOAPSIS":"497.533","ARG_OF_PERICENTER":"38.6099","CENTER_NAME":"EARTH"},{"EPHEMERIS_TYPE":"0","SITE":"AFETR","LAUNCH_DATE":"2019-05-24","OBJECT_ID":"2019-029Q","MEAN_ANOMALY":"78.5626","MEAN_MOTION_DDOT":"0.0000000000000","GP_ID":"199346818","PERIOD":"93.938","FILE":"3368836","TLE_LINE2":"2 44249  52.9740 120.3825 0002203 281.5126  78.5626 15.32929685156034","MEAN_MOTION_DOT":"0.00042496","TIME_SYSTEM":"UTC","NORAD_CAT_ID":"44249","ECCENTRICITY":"0.00022030","DECAY_DATE":null,"BSTAR":"0.00132140000000","OBJECT_TYPE":"PAYLOAD","CLASSIFICATION_TYPE":"U","OBJECT_NAME":"STARLINK-61","ARG_OF_PERICENTER":"281.5126","CENTER_NAME":"EARTH","PERIAPSIS":"465.571","APOAPSIS":"468.587","TLE_LINE1":"1 44249U 19029Q   22080.72016974  .00042496  00000-0  13214-2 0  9990","MEAN_MOTION":"15.32929685","RA_OF_ASC_NODE":"120.3825","SEMIMAJOR_AXIS":"6845.214","COUNTRY_CODE":"US","RCS_SIZE":"LARGE","EPOCH":"2022-03-21T17:17:02.665536","INCLINATION":"52.9740","REV_AT_EPOCH":"15603","ELEMENT_SET_NO":"999","MEAN_ELEMENT_THEORY":"SGP4","REF_FRAME":"TEME"},{"NORAD_CAT_ID":"44252","ECCENTRICITY":"0.00054530","MEAN_MOTION_DOT":"0.00024840","TIME_SYSTEM":"UTC","TLE_LINE2":"2 44252  52.9963 155.0001 0005453  39.3584 320.7808 15.26164873155512","OBJECT_NAME":"STARLINK-71","CLASSIFICATION_TYPE":"U","DECAY_DATE":null,"BSTAR":"0.00095831000000","OBJECT_TYPE":"PAYLOAD","GP_ID":"199345068","PERIOD":"94.354","MEAN_ANOMALY":"320.7808","MEAN_MOTION_DDOT":"0.0000000000000","OBJECT_ID":"2019-029T","LAUNCH_DATE":"2019-05-24","EPHEMERIS_TYPE":"0","SITE":"AFETR","FILE":"3368836","EPOCH":"2022-03-21T21:29:59.230752","SEMIMAJOR_AXIS":"6865.427","RCS_SIZE":"LARGE","COUNTRY_CODE":"US","RA_OF_ASC_NODE":"155.0001","MEAN_MOTION":"15.26164873","REF_FRAME":"TEME","MEAN_ELEMENT_THEORY":"SGP4","REV_AT_EPOCH":"15551","ELEMENT_SET_NO":"999","INCLINATION":"52.9963","CENTER_NAME":"EARTH","ARG_OF_PERICENTER":"39.3584","TLE_LINE1":"1 44252U 19029T   22080.89582443  .00024840  00000-0  95831-3 0  9990","PERIAPSIS":"483.548","APOAPSIS":"491.035"},{"FILE":"3368827","SITE":"AFETR","EPHEMERIS_TYPE":"0","OBJECT_ID":"2019-029AZ","LAUNCH_DATE":"2019-05-24","MEAN_MOTION_DDOT":"0.0000000000000","MEAN_ANOMALY":"269.3051","PERIOD":"92.739","GP_ID":"199319914","OBJECT_TYPE":"PAYLOAD","BSTAR":"0.00235950000000","DECAY_DATE":null,"CLASSIFICATION_TYPE":"U","OBJECT_NAME":"STARLINK-80","TLE_LINE2":"2 44282  53.0123  52.2820 0007324  90.8797 269.3051 15.52750045156441","TIME_SYSTEM":"UTC","MEAN_MOTION_DOT":"0.00150904","ECCENTRICITY":"0.00073240","NORAD_CAT_ID":"44282","APOAPSIS":"413.674","PERIAPSIS":"403.732","TLE_LINE1":"1 44282U 19029AZ  22080.34460767  .00150904  00000-0  23595-2 0  9995","ARG_OF_PERICENTER":"90.8797","CENTER_NAME":"EARTH","INCLINATION":"53.0123","ELEMENT_SET_NO":"999","REV_AT_EPOCH":"15644","MEAN_ELEMENT_THEORY":"SGP4","REF_FRAME":"TEME","MEAN_MOTION":"15.52750045","RA_OF_ASC_NODE":"52.2820","RCS_SIZE":"LARGE","COUNTRY_CODE":"US","SEMIMAJOR_AXIS":"6786.838","EPOCH":"2022-03-21T08:16:14.102688"},{"APOAPSIS":"548.171","PERIAPSIS":"546.255","TLE_LINE1":"1 44713U 19074A   22080.77600701 -.00000087  00000-0  13022-4 0  9998","CENTER_NAME":"EARTH","ARG_OF_PERICENTER":"77.6157","REV_AT_EPOCH":"13036","ELEMENT_SET_NO":"999","REF_FRAME":"TEME","MEAN_ELEMENT_THEORY":"SGP4","INCLINATION":"53.0530","COUNTRY_CODE":"US","RCS_SIZE":"LARGE","SEMIMAJOR_AXIS":"6925.348","EPOCH":"2022-03-21T18:37:27.005664","MEAN_MOTION":"15.06400141","RA_OF_ASC_NODE":"211.0384","FILE":"3368836","MEAN_MOTION_DDOT":"0.0000000000000","MEAN_ANOMALY":"282.4987","PERIOD":"95.592","GP_ID":"199346607","SITE":"AFETR","EPHEMERIS_TYPE":"0","LAUNCH_DATE":"2019-11-11","OBJECT_ID":"2019-074A","OBJECT_NAME":"STARLINK-1007","OBJECT_TYPE":"PAYLOAD","BSTAR":"0.00001302200000","DECAY_DATE":null,"CLASSIFICATION_TYPE":"U","TIME_SYSTEM":"UTC","MEAN_MOTION_DOT":"-0.00000087","ECCENTRICITY":"0.00013830","NORAD_CAT_ID":"44713","TLE_LINE2":"2 44713  53.0530 211.0384 0001383  77.6157 282.4987 15.06400141130369"},{"FILE":"3368836","SITE":"AFETR","EPHEMERIS_TYPE":"0","LAUNCH_DATE":"2019-11-11","OBJECT_ID":"2019-074B","MEAN_MOTION_DDOT":"0.0000000000000","MEAN_ANOMALY":"292.4118","PERIOD":"95.592","GP_ID":"199346359","OBJECT_TYPE":"PAYLOAD","BSTAR":"0.00017288000000","DECAY_DATE":null,"CLASSIFICATION_TYPE":"U","OBJECT_NAME":"STARLINK-1008","TLE_LINE2":"2 44714  53.0553 211.4484 0001348  67.7014 292.4118 15.06406811130359","TIME_SYSTEM":"UTC","MEAN_MOTION_DOT":"0.00002295","ECCENTRICITY":"0.00013480","NORAD_CAT_ID":"44714","APOAPSIS":"548.126","PERIAPSIS":"546.259","TLE_LINE1":"1 44714U 19074B   22080.68848676  .00002295  00000-0  17288-3 0  9993","ARG_OF_PERICENTER":"67.7014","CENTER_NAME":"EARTH","INCLINATION":"53.0553","ELEMENT_SET_NO":"999","REV_AT_EPOCH":"13035","MEAN_ELEMENT_THEORY":"SGP4","REF_FRAME":"TEME","MEAN_MOTION":"15.06406811","RA_OF_ASC_NODE":"211.4484","COUNTRY_CODE":"US","RCS_SIZE":"LARGE","SEMIMAJOR_AXIS":"6925.328","EPOCH":"2022-03-21T16:31:25.256064"},{"TLE_LINE2":"2 44715  53.0546 211.1920 0001161  78.1798 281.9322 15.06396545130354","MEAN_MOTION_DOT":"0.00000234","TIME_SYSTEM":"UTC","NORAD_CAT_ID":"44715","ECCENTRICITY":"0.00011610","DECAY_DATE":null,"BSTAR":"0.00003458100000","OBJECT_TYPE":"PAYLOAD","CLASSIFICATION_TYPE":"U","OBJECT_NAME":"STARLINK-1009","EPHEMERIS_TYPE":"0","SITE":"AFETR","OBJECT_ID":"2019-074C","LAUNCH_DATE":"2019-11-11","MEAN_ANOMALY":"281.9322","MEAN_MOTION_DDOT":"0.0000000000000","GP_ID":"199345606","PERIOD":"95.592","FILE":"3368836","RA_OF_ASC_NODE":"211.1920","MEAN_MOTION":"15.06396545","SEMIMAJOR_AXIS":"6925.359","COUNTRY_CODE":"US","RCS_SIZE":"LARGE","EPOCH":"2022-03-21T17:51:02.776896","INCLINATION":"53.0546","REV_AT_EPOCH":"13035","ELEMENT_SET_NO":"999","MEAN_ELEMENT_THEORY":"SGP4","REF_FRAME":"TEME","ARG_OF_PERICENTER":"78.1798","CENTER_NAME":"EARTH","PERIAPSIS":"546.420","APOAPSIS":"548.028","TLE_LINE1":"1 44715U 19074C   22080.74378214  .00000234  00000-0  34581-4 0  9994"},{"TLE_LINE1":"1 44716U 19074D   22080.82855125  .00005026  00000-0  35600-3 0  9991","APOAPSIS":"547.990","PERIAPSIS":"546.382","ARG_OF_PERICENTER":"75.8669","CENTER_NAME":"EARTH","INCLINATION":"53.0539","REF_FRAME":"TEME","MEAN_ELEMENT_THEORY":"SGP4","REV_AT_EPOCH":"13035","ELEMENT_SET_NO":"999","MEAN_MOTION":"15.06408975","RA_OF_ASC_NODE":"210.8167","EPOCH":"2022-03-21T19:53:06.828000","RCS_SIZE":"LARGE","COUNTRY_CODE":"US","SEMIMAJOR_AXIS":"6925.321","FILE":"3368836","LAUNCH_DATE":"2019-11-11","OBJECT_ID":"2019-074D","SITE":"AFETR","EPHEMERIS_TYPE":"0","PERIOD":"95.592","GP_ID":"199345856","MEAN_MOTION_DDOT":"0.0000000000000","MEAN_ANOMALY":"284.2449","CLASSIFICATION_TYPE":"U","OBJECT_TYPE":"PAYLOAD","BSTAR":"0.00035600000000","DECAY_DATE":null,"OBJECT_NAME":"STARLINK-1010","TLE_LINE2":"2 44716  53.0539 210.8167 0001161  75.8669 284.2449 15.06408975130354","ECCENTRICITY":"0.00011610","NORAD_CAT_ID":"44716","TIME_SYSTEM":"UTC","MEAN_MOTION_DOT":"0.00005026"},{"TLE_LINE1":"1 44717U 19074E   22080.82671080  .00000969  00000-0  83914-4 0  9991","PERIAPSIS":"545.995","APOAPSIS":"548.401","CENTER_NAME":"EARTH","ARG_OF_PERICENTER":"61.4932","MEAN_ELEMENT_THEORY":"SGP4","REF_FRAME":"TEME","ELEMENT_SET_NO":"999","REV_AT_EPOCH":"13009","INCLINATION":"53.0536","EPOCH":"2022-03-21T19:50:27.813120","SEMIMAJOR_AXIS":"6925.333","RCS_SIZE":"LARGE","COUNTRY_CODE":"US","RA_OF_ASC_NODE":"230.8040","MEAN_MOTION":"15.06405060","FILE":"3368836","GP_ID":"199346109","PERIOD":"95.592","MEAN_ANOMALY":"298.6232","MEAN_MOTION_DDOT":"0.0000000000000","LAUNCH_DATE":"2019-11-11","OBJECT_ID":"2019-074E","EPHEMERIS_TYPE":"0","SITE":"AFETR","OBJECT_NAME":"STARLINK-1011","CLASSIFICATION_TYPE":"U","DECAY_DATE":null,"BSTAR":"0.00008391400000","OBJECT_TYPE":"PAYLOAD","NORAD_CAT_ID":"44717","ECCENTRICITY":"0.00017370","MEAN_MOTION_DOT":"0.00000969","TIME_SYSTEM":"UTC","TLE_LINE2":"2 44717  53.0536 230.8040 0001737  61.4932 298.6232 15.06405060130099"},{"COUNTRY_CODE":"US","RCS_SIZE":"LARGE","SEMIMAJOR_AXIS":"6925.312","EPOCH":"2022-03-21T17:35:06.942336","RA_OF_ASC_NODE":"211.2412","MEAN_MOTION":"15.06412021","ELEMENT_SET_NO":"999","REV_AT_EPOCH":"13035","MEAN_ELEMENT_THEORY":"SGP4","REF_FRAME":"TEME","INCLINATION":"53.0544","CENTER_NAME":"EARTH","ARG_OF_PERICENTER":"76.0466","APOAPSIS":"548.099","PERIAPSIS":"546.254","TLE_LINE1":"1 44718U 19074F   22080.73271924  .00000383  00000-0  44599-4 0  9991","TIME_SYSTEM":"UTC","MEAN_MOTION_DOT":"0.00000383","ECCENTRICITY":"0.00013320","NORAD_CAT_ID":"44718","TLE_LINE2":"2 44718  53.0544 211.2412 0001332  76.0466 284.0671 15.06412021130350","OBJECT_NAME":"STARLINK-1012","OBJECT_TYPE":"PAYLOAD","BSTAR":"0.00004459900000","DECAY_DATE":null,"CLASSIFICATION_TYPE":"U","MEAN_MOTION_DDOT":"0.0000000000000","MEAN_ANOMALY":"284.0671","PERIOD":"95.591","GP_ID":"199346858","SITE":"AFETR","EPHEMERIS_TYPE":"0","LAUNCH_DATE":"2019-11-11","OBJECT_ID":"2019-074F","FILE":"3368836"}];
